NORAD_CAT_ID,OBJECT_NAME,OBJECT_TYPE,EPOCH,MEAN_MOTION,ECCENTRICITY,INCLINATION,RA_OF_ASC_NODE,ARG_OF_PERICENTER,MEAN_ANOMALY,BSTAR,MEAN_MOTION_DOT,MEAN_MOTION_DDOT,TLE_LINE0,TLE_LINE1,TLE_LINE2,SEMIMAJOR_AXIS,PERIOD,APOGEE,PERIGEE,DECAYED
55661.0,STARLINK-5475,PAYLOAD,2023-04-17 03:38:58,15.69915705,0.0003289,70.0004,345.7845,271.8722,88.2097,-9.3031e-06,-1.331e-05,0.0,0 STARLINK-5475,1 55661U 23021AK  23107.15206350 -.00001331  00000-0 -93031-5 0  9997,2 55661  70.0004 345.7845 0003289 271.8722  88.2097 15.69915705  9712,6737.275,91.725,361.356,356.924,0.0
55661.0,STARLINK-5475,PAYLOAD,2023-04-17 18:56:28,15.69935804,0.0003693,70.0,343.9928,267.8043,92.273,4.7136e-05,5.462e-05,0.0,0 STARLINK-5475,1 55661U 23021AK  23107.78922329  .00005462  00000-0  47136-4 0  9998,2 55661  70.0000 343.9928 0003693 267.8043  92.2730 15.69935804  9812,6737.218,91.723,361.571,356.595,0.0
55661.0,STARLINK-5475,PAYLOAD,2023-04-18 04:06:59,15.69933933,0.0003709,70.0003,342.9188,268.9717,91.1054,4.3586e-05,5.034e-05,0.0,0 STARLINK-5475,1 55661U 23021AK  23108.17152497  .00005034  00000-0  43586-4 0  9993,2 55661  70.0003 342.9188 0003709 268.9717  91.1054 15.69933933 10179,6737.223,91.724,361.587,356.589,0.0
55661.0,STARLINK-5475,PAYLOAD,2023-04-18 17:52:46,15.69917932,0.0003039,70.0005,341.3049,259.5508,100.5345,-4.3695e-06,-7.38e-06,0.0,0 STARLINK-5475,1 55661U 23021AK  23108.74498142 -.00000738  00000-0 -43695-5 0  9996,2 55661  70.0005 341.3049 0003039 259.5508 100.5345 15.69917932  9964,6737.269,91.725,361.181,357.086,0.0
55661.0,STARLINK-5475,PAYLOAD,2023-04-19 03:03:17,15.69921638,0.0003033,70.001,340.2317,270.6102,89.4746,-4.444e-07,-2.66e-06,0.0,0 STARLINK-5475,1 55661U 23021AK  23109.12728177 -.00000266  00000-0 -44440-6 0  9999,2 55661  70.0010 340.2317 0003033 270.6102  89.4746 15.69921638 10324,6737.258,91.724,361.167,357.08,0.0
55661.0,STARLINK-5475,PAYLOAD,2023-04-19 21:24:18,15.69931653,0.0003521,70.0002,338.0814,262.7909,97.2886,2.9667e-05,3.357e-05,0.0,0 STARLINK-5475,1 55661U 23021AK  23109.89187952  .00003357  00000-0  29667-4 0  9997,2 55661  70.0002 338.0814 0003521 262.7909  97.2886 15.69931653 10444,6737.23,91.724,361.467,356.722,0.0
55661.0,STARLINK-5475,PAYLOAD,2023-04-20 00:27:48,15.69935625,0.0003234,69.9998,337.7241,266.5692,93.5133,4.9882e-05,5.792e-05,0.0,0 STARLINK-5475,1 55661U 23021AK  23110.01931202  .00005792  00000-0  49882-4 0  9994,2 55661  69.9998 337.7241 0003234 266.5692  93.5133 15.69935625 10163,6737.218,91.724,361.262,356.904,0.0
55661.0,STARLINK-5475,PAYLOAD,2023-04-20 21:52:20,15.69926723,0.0003475,70.0,335.215,256.3548,103.7261,3.0895e-05,3.504e-05,0.0,0 STARLINK-5475,1 55661U 23021AK  23110.91135159  .00003504  00000-0  30895-4 0  9993,2 55661  70.0000 335.2150 0003475 256.3548 103.7261 15.69926723 10600,6737.244,91.724,361.45,356.767,0.0
55661.0,STARLINK-5475,PAYLOAD,2023-04-21 02:27:35,15.69941067,0.0003424,69.9997,334.6774,254.2961,105.7857,7.4145e-05,8.718e-05,0.0,0 STARLINK-5475,1 55661U 23021AK  23111.10249569  .00008718  00000-0  74145-4 0  9994,2 55661  69.9997 334.6774 0003424 254.2961 105.7857 15.69941067 10338,6737.203,91.723,361.374,356.761,0.0
55661.0,STARLINK-5475,PAYLOAD,2023-04-21 08:34:36,15.69935681,0.0002768,69.9999,333.9616,260.8841,99.2042,6.966e-05,8.175e-05,0.0,0 STARLINK-5475,1 55661U 23021AK  23111.35736637  .00008175  00000-0  69660-4 0  9991,2 55661  69.9999 333.9616 0002768 260.8841  99.2042 15.69935681 10379,6737.218,91.724,360.948,357.218,0.0
55661.0,STARLINK-5475,PAYLOAD,2023-04-21 17:45:06,15.69934307,0.0003081,69.9991,332.8853,254.8944,105.1911,4.3366e-05,5.007e-05,0.0,0 STARLINK-5475,1 55661U 23021AK  23111.73966415  .00005007  00000-0  43366-4 0  9998,2 55661  69.9991 332.8853 0003081 254.8944 105.1911 15.69934307 10431,6737.222,91.724,361.163,357.011,0.0
55661.0,STARLINK-5475,PAYLOAD,2023-04-22 13:37:53,15.69922123,0.0003091,69.9999,330.558,254.1397,105.9458,6.6704e-05,7.814e-05,0.0,0 STARLINK-5475,1 55661U 23021AK  23112.56798414  .00007814  00000-0  66704-4 0  9991,2 55661  69.9999 330.5580 0003091 254.1397 105.9458 15.69922123 10861,6737.257,91.724,361.204,357.039,0.0
55661.0,STARLINK-5475,PAYLOAD,2023-04-22 18:13:09,15.6991178,0.0003826,69.9998,330.0202,256.8447,103.2322,-2.8055e-05,-3.584e-05,0.0,0 STARLINK-5475,1 55661U 23021AK  23112.75913590 -.00003584  00000-0 -28055-4 0  9995,2 55661  69.9998 330.0202 0003826 256.8447 103.2322 15.69911780 10595,6737.286,91.725,361.729,356.574,0.0
55661.0,STARLINK-5475,PAYLOAD,2023-04-23 01:51:54,15.69917777,0.00031,69.9999,329.1228,257.8347,102.2502,-1.4405e-05,-1.944e-05,0.0,0 STARLINK-5475,1 55661U 23021AK  23113.07771891 -.00001944  00000-0 -14405-4 0  9999,2 55661  69.9999 329.1228 0003100 257.8347 102.2502 15.69917777 10645,6737.269,91.725,361.223,357.046,0.0
55661.0,STARLINK-5475,PAYLOAD,2023-04-23 17:09:25,15.69935369,0.0003275,69.9997,327.3298,259.2998,100.7829,4.9619e-05,5.76e-05,0.0,0 STARLINK-5475,1 55661U 23021AK  23113.71488292  .00005760  00000-0  49619-4 0  9993,2 55661  69.9997 327.3298 0003275 259.2998 100.7829 15.69935369 10744,6737.219,91.724,361.29,356.877,0.0
55661.0,STARLINK-5475,PAYLOAD,2023-04-23 23:16:26,15.69948478,0.0002709,70.0001,326.6154,263.45,96.6387,0.00010781,0.00012782,0.0,0 STARLINK-5475,1 55661U 23021AK  23113.96974749  .00012782  00000-0  10781-3 0  9996,2 55661  70.0001 326.6154 0002709 263.4500  96.6387 15.69948478 10784,6737.181,91.723,360.872,357.221,0.0
55661.0,STARLINK-5475,PAYLOAD,2023-04-24 17:37:26,15.69955516,0.0002719,70.0013,324.4659,235.3982,124.6958,8.3097e-05,9.803e-05,0.0,0 STARLINK-5475,1 55661U 23021AK  23114.73433670  .00009803  00000-0  83097-4 0  9996,2 55661  70.0013 324.4659 0002719 235.3982 124.6958 15.69955516 10907,6737.161,91.722,360.858,357.194,0.0
55661.0,STARLINK-5475,PAYLOAD,2023-04-25 02:47:59,15.69862355,0.000295,70.0013,323.3886,292.0769,68.0113,-0.00022306,-0.00026877,0.0,0 STARLINK-5475,1 55661U 23021AK  23115.11666066 -.00026877  00000-0 -22306-3 0  9993,2 55661  70.0013 323.3886 0002950 292.0769  68.0113 15.69862355 10965,6737.428,91.728,361.28,357.305,0.0
55661.0,STARLINK-5475,PAYLOAD,2023-04-26 12:26:32,15.69947286,0.000365,70.0039,319.4469,291.812,68.2688,0.00021886,0.00026212,0.0,0 STARLINK-5475,1 55661U 23021AK  23116.51843680  .00026212  00000-0  21886-3 0  9990,2 55661  70.0039 319.4469 0003650 291.8120  68.2688 15.69947286 11486,6737.185,91.723,361.509,356.591,0.0
55661.0,STARLINK-5475,PAYLOAD,2023-04-26 15:30:02,15.69950345,0.000421,69.9983,319.0966,293.7077,66.3677,0.00029479,0.00035427,0.0,0 STARLINK-5475,1 55661U 23021AK  23116.64586565  .00035427  00000-0  29479-3 0  9994,2 55661  69.9983 319.0966 0004210 293.7077  66.3677 15.69950345 11504,6737.176,91.723,361.877,356.205,0.0
55661.0,STARLINK-5475,PAYLOAD,2023-04-27 12:54:34,15.69919566,0.0002665,69.9969,316.5806,264.9365,95.1527,-2.5407e-05,-3.265e-05,0.0,0 STARLINK-5475,1 55661U 23021AK  23117.53789469 -.00003265  00000-0 -25407-4 0  9996,2 55661  69.9969 316.5806 0002665 264.9365  95.1527 15.69919566 11644,6737.264,91.724,360.925,357.334,0.0
55661.0,STARLINK-5475,PAYLOAD,2023-04-27 17:29:48,15.69926365,0.0003392,69.9973,316.0451,266.431,93.6497,-6.5224e-05,-8.049e-05,0.0,0 STARLINK-5475,1 55661U 23021AK  23117.72903889 -.00008049  00000-0 -65224-4 0  9997,2 55661  69.9973 316.0451 0003392 266.4310  93.6497 15.69926365 11379,6737.245,91.724,361.395,356.824,0.0
55661.0,STARLINK-5475,PAYLOAD,2023-04-27 22:05:03,15.69939838,0.000377,70.0002,315.5095,273.7488,86.3276,-2.2839e-05,-2.96e-05,0.0,0 STARLINK-5475,1 55661U 23021AK  23117.92018390 -.00002960  00000-0 -22839-4 0  9994,2 55661  70.0002 315.5095 0003770 273.7488  86.3276 15.69939838 11407,6737.206,91.723,361.611,356.531,0.0
55661.0,STARLINK-5475,PAYLOAD,2023-04-28 19:29:35,15.69932322,0.0003473,69.9999,313.0024,267.1203,92.9596,-1.086e-05,-1.519e-05,0.0,0 STARLINK-5475,1 55661U 23021AK  23118.81221648 -.00001519  00000-0 -10860-4 0  9995,2 55661  69.9999 313.0024 0003473 267.1203  92.9596 15.69932322 11540,6737.228,91.724,361.432,356.753,0.0
55661.0,STARLINK-5475,PAYLOAD,2023-04-29 13:50:37,15.69916439,0.0003592,69.9989,310.851,267.068,93.0105,1.5788e-05,1.685e-05,0.0,0 STARLINK-5475,1 55661U 23021AK  23119.57682751  .00001685  00000-0  15788-4 0  9991,2 55661  69.9989 310.8510 0003592 267.0680  93.0105 15.69916439 11969,6737.273,91.725,361.558,356.718,0.0
55661.0,STARLINK-5475,PAYLOAD,2023-04-29 16:54:08,15.6992092,0.0003524,69.9987,310.4917,265.4747,94.6046,2.6022e-05,2.917e-05,0.0,0 STARLINK-5475,1 55661U 23021AK  23119.70425978  .00002917  00000-0  26022-4 0  9994,2 55661  69.9987 310.4917 0003524 265.4747  94.6046 15.69920920 11685,6737.26,91.724,361.499,356.751,0.0
55661.0,STARLINK-5475,PAYLOAD,2023-04-29 23:01:08,15.69931,0.0003419,69.9979,309.7729,266.4507,93.6298,3.8809e-05,4.457e-05,0.0,0 STARLINK-5475,1 55661U 23021AK  23119.95912169  .00004457  00000-0  38809-4 0  9991,2 55661  69.9979 309.7729 0003419 266.4507  93.6298 15.69931000 11720,6737.231,91.724,361.4,356.793,0.0
55661.0,STARLINK-5475,PAYLOAD,2023-04-30 14:18:39,15.6991637,0.000317,70.0002,307.9832,266.9127,93.1706,2.0043e-05,2.197e-05,0.0,0 STARLINK-5475,1 55661U 23021AK  23120.59629626  .00002197  00000-0  20043-4 0  9996,2 55661  70.0002 307.9832 0003170 266.9127  93.1706 15.69916370 11825,6737.273,91.725,361.274,357.003,0.0
55661.0,STARLINK-5475,PAYLOAD,2023-05-01 13:14:56,15.69934029,0.0003059,69.9989,305.2965,263.0096,97.0752,-1.2323e-05,-1.695e-05,0.0,0 STARLINK-5475,1 55661U 23021AK  23121.55204044 -.00001695  00000-0 -12323-4 0  9992,2 55661  69.9989 305.2965 0003059 263.0096  97.0752 15.69934029 12278,6737.223,91.724,361.149,357.027,0.0
55661.0,STARLINK-5475,PAYLOAD,2023-05-01 14:46:41,15.69928471,0.0003029,69.9991,305.1173,259.918,100.1674,1.3208e-05,1.376e-05,0.0,0 STARLINK-5475,1 55661U 23021AK  23121.61575950  .00001376  00000-0  13208-4 0  9993,2 55661  69.9991 305.1173 0003029 259.9180 100.1674 15.69928471 11986,6737.239,91.724,361.144,357.063,0.0
